[{"OBJECT_NAME":"OBJECT C","OBJECT_ID":"2023-104C","EPOCH":"2026-03-09T22:39:44.230752","MEAN_MOTION":15.26846312,"ECCENTRICITY":0.00113074,"INCLINATION":97.273,"RA_OF_ASC_NODE":135.3333,"ARG_OF_PERICENTER":3.876,"MEAN_ANOMALY":356.2565,"EPHEMERIS_TYPE":0,"CLASSIFICATION_TYPE":"U","NORAD_CAT_ID":57426,"ELEMENT_SET_NO":999,"REV_AT_EPOCH":14663,"BSTAR":0.00062618506,"MEAN_MOTION_DOT":0.00016495,"MEAN_MOTION_DDOT":0},{"OBJECT_NAME":"STARLINK-32677","OBJECT_ID":"2025-032R","EPOCH":"2026-03-09T01:39:19.596384","MEAN_MOTION":15.2755691,"ECCENTRICITY":0.0001167,"INCLINATION":43.0015,"RA_OF_ASC_NODE":339.6819,"ARG_OF_PERICENTER":291.3833,"MEAN_ANOMALY":68.6894,"EPHEMERIS_TYPE":0,"CLASSIFICATION_TYPE":"U","NORAD_CAT_ID":63020,"ELEMENT_SET_NO":999,"REV_AT_EPOCH":6051,"BSTAR":0.0010516232,"MEAN_MOTION_DOT":0.00028769,"MEAN_MOTION_DDOT":0}]
